line1,line2,validFromUtcTime
1 00000U 00000E   26001.00000000  .00000000  00000-0  27772-4 0    01,2 00000  88.8546  90.3331 0010049 269.6212 105.3810 13.55318664    02,2026-01-01T00:00:00Z
1 00000U 00000E   26002.00000000  .00000000  00000-0  27772-4 0    02,2 00000  88.8546  90.2166 0010049 266.7115 304.5266 13.55318703    09,2026-01-02T00:00:00Z
